{"type": "FeatureCollection", "features": [ {"type": "Feature", "properties": {"norad_id": 43010, "name": "FENGYUN 3D", "group": "weather", "lat": 80.47274430334812, "lon": -165.8077892129325, "alt_km": 819.2603007009857, "timestamp": "2025-12-03T10:52:57.090241+00:00", "meta": {"OBJECT_NAME": "FENGYUN 3D", "OBJECT_ID": "2017-072A", "EPOCH": "2025-12-03T05:22:15.443904", "MEAN_MOTION": 14.19679187, "ECCENTRICITY": 5.89e-05, "INCLINATION": 98.988, "RA_OF_ASC_NODE": 303.3922, "ARG_OF_PERICENTER": 222.2746, "MEAN_ANOMALY": 137.8384, "EPHEMERIS_TYPE": 0, "CLASSIFICATION_TYPE": "U", "NORAD_CAT_ID": 43010, "ELEMENT_SET_NO": 999, "REV_AT_EPOCH": 41718, "BSTAR": 9.3143e-05, "MEAN_MOTION_DOT": 1.51e-06, "MEAN_MOTION_DDOT": 0}, "tle": {"line1": "1 43010U 17072A   25337.22378986  .00000151  00000+0  93143-4 0  9990", "line2": "2 43010  98.9880 303.3922 0000589 222.2746 137.8384 14.19679187417189"}}, "geometry": {"type": "Point", "coordinates": [-165.8077892129325, 80.47274430334812]}}, {"type": "Feature", "properties": {"norad_id": 43013, "name": "NOAA 20 (JPSS-1)", "group": "weather", "lat": -69.15070921937617, "lon": 69.97451306571087, "alt_km": 835.5165646429768, "timestamp": "2025-12-03T10:52:57.090252+00:00", "meta": {"OBJECT_NAME": "NOAA 20 (JPSS-1)", "OBJECT_ID": "2017-073A", "EPOCH": "2025-12-03T02:56:14.253216", "MEAN_MOTION": 14.19521491, "ECCENTRICITY": 0.0002069, "INCLINATION": 98.7584, "RA_OF_ASC_NODE": 273.525, "ARG_OF_PERICENTER": 100.9514, "MEAN_ANOMALY": 259.1895, "EPHEMERIS_TYPE": 0, "CLASSIFICATION_TYPE": "U", "NORAD_CAT_ID": 43013, "ELEMENT_SET_NO": 999, "REV_AT_EPOCH": 41665, "BSTAR": 8.0781e-05, "MEAN_MOTION_DOT": 1.26e-06, "MEAN_MOTION_DDOT": 0}, "tle": {"line1": "1 43013U 17073A   25337.12238719  .00000126  00000+0  80781-4 0  9998", "line2": "2 43013  98.7584 273.5250 0002069 100.9514 259.1895 14.19521491416653"}}, "geometry": {"type": "Point", "coordinates": [69.97451306571087, -69.15070921937617]}}, {"type": "Feature", "properties": {"norad_id": 43226, "name": "GOES 17", "group": "weather", "lat": 0.35935847069018895, "lon": 146.22264895730154, "alt_km": 35794.224268279315, "timestamp": "2025-12-03T10:52:57.090265+00:00", "meta": {"OBJECT_NAME": "GOES 17", "OBJECT_ID": "2018-022A", "EPOCH": "2025-12-03T03:03:21.970368", "MEAN_MOTION": 1.00271425, "ECCENTRICITY": 0.0003404, "INCLINATION": 0.4329, "RA_OF_ASC_NODE": 89.3309, "ARG_OF_PERICENTER": 181.1685, "MEAN_ANOMALY": 118.0639, "EPHEMERIS_TYPE": 0, "CLASSIFICATION_TYPE": "U", "NORAD_CAT_ID": 43226, "ELEMENT_SET_NO": 999, "REV_AT_EPOCH": 2845, "BSTAR": 0, "MEAN_MOTION_DOT": -1.63e-06, "MEAN_MOTION_DDOT": 0}, "tle": {"line1": "1 43226U 18022A   25337.12733762 -.00000163  00000+0  00000+0 0  9990", "line2": "2 43226   0.4329  89.3309 0003404 181.1685 118.0639  1.00271425 28459"}}, "geometry": {"type": "Point", "coordinates": [146.22264895730154, 0.35935847069018895]}}, {"type": "Feature", "properties": {"norad_id": 43491, "name": "FENGYUN 2H", "group": "weather", "lat": -2.038475203017846, "lon": -44.87603563662297, "alt_km": 35782.55931781378, "timestamp": "2025-12-03T10:52:57.090277+00:00", "meta": {"OBJECT_NAME": "FENGYUN 2H", "OBJECT_ID": "2018-050A", "EPOCH": "2025-12-03T02:08:49.697376", "MEAN_MOTION": 1.00271438, "ECCENTRICITY": 0.0002887, "INCLINATION": 2.5239, "RA_OF_ASC_NODE": 81.4356, "ARG_OF_PERICENTER": 162.214, "MEAN_ANOMALY": 300.1007, "EPHEMERIS_TYPE": 0, "CLASSIFICATION_TYPE": "U", "NORAD_CAT_ID": 43491, "ELEMENT_SET_NO": 999, "REV_AT_EPOCH": 2747, "BSTAR": 0, "MEAN_MOTION_DOT": -1.11e-06, "MEAN_MOTION_DDOT": 0}, "tle": {"line1": "1 43491U 18050A   25337.08946409 -.00000111  00000+0  00000+0 0  9997", "line2": "2 43491   2.5239  81.4356 0002887 162.2140 300.1007  1.00271438 27479"}}, "geometry": {"type": "Point", "coordinates": [-44.87603563662297, -2.038475203017846]}}, {"type": "Feature", "properties": {"norad_id": 43689, "name": "METOP-C", "group": "weather", "lat": -33.73200158332795, "lon": 41.22901766762902, "alt_km": 826.4172585282813, "timestamp": "2025-12-03T10:52:57.090291+00:00", "meta": {"OBJECT_NAME": "METOP-C", "OBJECT_ID": "2018-087A", "EPOCH": "2025-12-03T02:35:47.196096", "MEAN_MOTION": 14.21505848, "ECCENTRICITY": 0.0001714, "INCLINATION": 98.6943, "RA_OF_ASC_NODE": 35.0247, "ARG_OF_PERICENTER": 57.9721, "MEAN_ANOMALY": 302.1623, "EPHEMERIS_TYPE": 0, "CLASSIFICATION_TYPE": "U", "NORAD_CAT_ID": 43689, "ELEMENT_SET_NO": 999, "REV_AT_EPOCH": 36697, "BSTAR": 0.0001127, "MEAN_MOTION_DOT": 2.03e-06, "MEAN_MOTION_DDOT": 0}, "tle": {"line1": "1 43689U 18087A   25337.10818514  .00000203  00000+0  11270-3 0  9990", "line2": "2 43689  98.6943  35.0247 0001714  57.9721 302.1623 14.21505848366972"}}, "geometry": {"type": "Point", "coordinates": [41.22901766762902, -33.73200158332795]}}, {"type": "Feature", "properties": {"norad_id": 43823, "name": "GEO-KOMPSAT-2A", "group": "weather", "lat": 0.0035335764602327066, "lon": 3.9918663591779473, "alt_km": 35788.93233196713, "timestamp": "2025-12-03T10:52:57.090302+00:00", "meta": {"OBJECT_NAME": "GEO-KOMPSAT-2A", "OBJECT_ID": "2018-100A", "EPOCH": "2025-12-02T22:57:21.193056", "MEAN_MOTION": 1.00268627, "ECCENTRICITY": 5.34e-05, "INCLINATION": 0.0243, "RA_OF_ASC_NODE": 71.4005, "ARG_OF_PERICENTER": 145.3894, "MEAN_ANOMALY": 327.8405, "EPHEMERIS_TYPE": 0, "CLASSIFICATION_TYPE": "U", "NORAD_CAT_ID": 43823, "ELEMENT_SET_NO": 999, "REV_AT_EPOCH": 2566, "BSTAR": 0, "MEAN_MOTION_DOT": 0, "MEAN_MOTION_DDOT": 0}, "tle": {"line1": "1 43823U 18100A   25336.95649529  .00000000  00000+0  00000+0 0  9996", "line2": "2 43823   0.0243  71.4005 0000534 145.3894 327.8405  1.00268627 25664"}}, "geometry": {"type": "Point", "coordinates": [3.9918663591779473, 0.0035335764602327066]}}, {"type": "Feature", "properties": {"norad_id": 44387, "name": "METEOR-M2 2", "group": "weather", "lat": -52.30933374019691, "lon": -31.234671557424452, "alt_km": 818.2893608960412, "timestamp": "2025-12-03T10:52:57.090314+00:00", "meta": {"OBJECT_NAME": "METEOR-M2 2", "OBJECT_ID": "2019-038A", "EPOCH": "2025-12-03T04:23:16.805760", "MEAN_MOTION": 14.24284786, "ECCENTRICITY": 8.63e-05, "INCLINATION": 98.8963, "RA_OF_ASC_NODE": 316.7952, "ARG_OF_PERICENTER": 168.4074, "MEAN_ANOMALY": 191.7124, "EPHEMERIS_TYPE": 0, "CLASSIFICATION_TYPE": "U", "NORAD_CAT_ID": 44387, "ELEMENT_SET_NO": 999, "REV_AT_EPOCH": 33339, "BSTAR": 0.00012572, "MEAN_MOTION_DOT": 2.44e-06, "MEAN_MOTION_DDOT": 0}, "tle": {"line1": "1 44387U 19038A   25337.18283340  .00000244  00000+0  12572-3 0  9995", "line2": "2 44387  98.8963 316.7952 0000863 168.4074 191.7124 14.24284786333393"}}, "geometry": {"type": "Point", "coordinates": [-31.234671557424452, -52.30933374019691]}}, {"type": "Feature", "properties": {"norad_id": 47719, "name": "ARKTIKA-M 1", "group": "weather", "lat": 55.7564477120441, "lon": -142.68581770209153, "alt_km": 31531.426255858187, "timestamp": "2025-12-03T10:52:57.090328+00:00", "meta": {"OBJECT_NAME": "ARKTIKA-M 1", "OBJECT_ID": "2021-016A", "EPOCH": "2025-12-01T02:41:41.634816", "MEAN_MOTION": 2.00613156, "ECCENTRICITY": 0.71974708, "INCLINATION": 63.1756, "RA_OF_ASC_NODE": 85.6045, "ARG_OF_PERICENTER": 269.084, "MEAN_ANOMALY": 15.7076, "EPHEMERIS_TYPE": 0, "CLASSIFICATION_TYPE": "U", "NORAD_CAT_ID": 47719, "ELEMENT_SET_NO": 999, "REV_AT_EPOCH": 3481, "BSTAR": 0, "MEAN_MOTION_DOT": -1.2e-07, "MEAN_MOTION_DDOT": 0}, "tle": {"line1": "1 47719U 21016A   25335.11228744 -.00000012  00000+0  00000+0 0  9997", "line2": "2 47719  63.1756  85.6045 7197470 269.0840  15.7076  2.00613156 34816"}}, "geometry": {"type": "Point", "coordinates": [-142.68581770209153, 55.7564477120441]}}, {"type": "Feature", "properties": {"norad_id": 49008, "name": "FENGYUN 3E", "group": "weather", "lat": 52.52608269989249, "lon": -33.50176730997709, "alt_km": 820.8053032246107, "timestamp": "2025-12-03T10:52:57.090342+00:00", "meta": {"OBJECT_NAME": "FENGYUN 3E", "OBJECT_ID": "2021-062A", "EPOCH": "2025-12-03T05:33:29.294784", "MEAN_MOTION": 14.19877916, "ECCENTRICITY": 7.63e-05, "INCLINATION": 98.7476, "RA_OF_ASC_NODE": 337.8655, "ARG_OF_PERICENTER": 325.5706, "MEAN_ANOMALY": 34.542, "EPHEMERIS_TYPE": 0, "CLASSIFICATION_TYPE": "U", "NORAD_CAT_ID": 49008, "ELEMENT_SET_NO": 999, "REV_AT_EPOCH": 22877, "BSTAR": 4.3016e-05, "MEAN_MOTION_DOT": 4.7e-07, "MEAN_MOTION_DDOT": 0}, "tle": {"line1": "1 49008U 21062A   25337.23158906  .00000047  00000+0  43016-4 0  9994", "line2": "2 49008  98.7476 337.8655 0000763 325.5706  34.5420 14.19877916228772"}}, "geometry": {"type": "Point", "coordinates": [-33.50176730997709, 52.52608269989249]}}, {"type": "Feature", "properties": {"norad_id": 51850, "name": "GOES 18", "group": "weather", "lat": 0.0037258846950499044, "lon": 98.75359845966571, "alt_km": 35789.48471864242, "timestamp": "2025-12-03T10:52:57.090354+00:00", "meta": {"OBJECT_NAME": "GOES 18", "OBJECT_ID": "2022-021A", "EPOCH": "2025-12-03T02:49:53.262048", "MEAN_MOTION": 1.00270254, "ECCENTRICITY": 7.24e-05, "INCLINATION": 0.0067, "RA_OF_ASC_NODE": 251.6796, "ARG_OF_PERICENTER": 37.5748, "MEAN_ANOMALY": 48.4284, "EPHEMERIS_TYPE": 0, "CLASSIFICATION_TYPE": "U", "NORAD_CAT_ID": 51850, "ELEMENT_SET_NO": 999, "REV_AT_EPOCH": 462, "BSTAR": 0, "MEAN_MOTION_DOT": 1.16e-06, "MEAN_MOTION_DDOT": 0}, "tle": {"line1": "1 51850U 22021A   25337.11797757  .00000116  00000+0  00000+0 0  9996", "line2": "2 51850   0.0067 251.6796 0000724  37.5748  48.4284  1.00270254  4620"}}, "geometry": {"type": "Point", "coordinates": [98.75359845966571, 0.0037258846950499044]}}]}